LEMUR-2-ANDIS           
1 42838U 17042P   26068.55941107  .00023598  00000+0  79875-3 0  9998
2 42838  97.3659 249.7950 0009101   4.3248 355.8070 15.30557934473198
STARLINK-31121          
1 58685U 23211U   26068.45914014 -.00018096  00000+0 -64837-3 0  9997
2 58685  42.9995  86.2025 0001102 209.0829 150.9962 15.27644877122434
